IRIDIUM 116             
1 43072U 17083C   25291.11823064  .00000233  00000+0  76142-4 0  9990
2 43072  86.3949  63.1805 0001801  91.2664 268.8738 14.34218178409473
IRIDIUM 130             
1 43073U 17083D   25291.08651631  .00000180  00000+0  57237-4 0  9991
2 43073  86.3957  63.4458 0001963  83.5152 276.6267 14.34218856409416
IRIDIUM 151             
1 43074U 17083E   25291.13091588  .00000134  00000+0  40939-4 0  9997
2 43074  86.3951  63.2277 0001816  92.4165 267.7238 14.34217659409440
IRIDIUM 134             
1 43075U 17083F   25291.09920330 -.00000077  00000+0 -34569-4 0  9999
2 43075  86.3954  63.2462 0001970  84.5033 275.6388 14.34217408409409
IRIDIUM 137             
1 43076U 17083G   25290.90258192 -.00000015  00000+0 -12323-4 0  9995
2 43076  86.3953  63.4162 0001436 102.2917 257.8440 14.34217408409449
IRIDIUM 141             
1 43077U 17083H   25291.10554602  .00000207  00000+0  66960-4 0  9991
2 43077  86.3947  63.1751 0002219  95.2246 264.9203 14.34217423409476
IRIDIUM 153             
1 43078U 17083J   25290.98795705  .00000250  00000+0  82247-4 0  9992
2 43078  86.4008  31.7042 0002556  94.6867 265.4621 14.34217649410568
IRIDIUM 131             
1 43079U 17083K   25291.09286117  .00000271  00000+0  89700-4 0  9992
2 43079  86.3956  63.3504 0002121  95.5912 264.5526 14.34218281409401
